{
  "type": "FeatureCollection",
  "features": [
    {
      "type": "Feature",
      "properties": {
        "norad_id": 66454,
        "name": "VIASAT-3 F2",
        "group": "last-30-days",
        "lat": 2.5666135072387974,
        "lon": -39.67270066652733,
        "alt_km": 23971.251515880955,
        "timestamp": "2025-12-12T03:50:51.175668+00:00",
        "meta_object_name": "VIASAT-3 F2",
        "meta_object_id": "2025-261A",
        "meta_epoch": "2025-12-08T12:11:15.383616",
        "meta_mean_motion": 2.19142646,
        "meta_eccentricity": 0.22792154,
        "meta_inclination": 5.457,
        "meta_ra_of_asc_node": 292.6501,
        "meta_arg_of_pericenter": 190.5469,
        "meta_mean_anomaly": 204.5187,
        "meta_ephemeris_type": 0,
        "meta_classification_type": "U",
        "meta_norad_cat_id": 66454,
        "meta_element_set_no": 999,
        "meta_rev_at_epoch": 55,
        "meta_bstar": 0,
        "meta_mean_motion_dot": -8.1e-07,
        "meta_mean_motion_ddot": 0,
        "tle_line1": "1 66454U 25261A   25342.50781694 -.00000081  00000+0  00000+0 0  9995",
        "tle_line2": "2 66454   5.4570 292.6501 2279215 190.5469 204.5187  2.19142646   557"
      },
      "geometry": {
        "type": "Point",
        "coordinates": [
          -39.67270066652733,
          2.5666135072387974
        ]
      }
    },
    {
      "type": "Feature",
      "properties": {
        "norad_id": 66455,
        "name": "ATLAS 5 CENTAUR R/B",
        "group": "last-30-days",
        "lat": -4.833361672275225,
        "lon": 163.35177229635383,
        "alt_km": 13433.39974008043,
        "timestamp": "2025-12-12T03:50:51.175720+00:00",
        "meta_object_name": "ATLAS 5 CENTAUR R/B",
        "meta_object_id": "2025-261B",
        "meta_epoch": "2025-12-11T15:16:36.105600",
        "meta_mean_motion": 2.28259842,
        "meta_eccentricity": 0.23294675,
        "meta_inclination": 6.1471,
        "meta_ra_of_asc_node": 291.7267,
        "meta_arg_of_pericenter": 186.2623,
        "meta_mean_anomaly": 318.1786,
        "meta_ephemeris_type": 0,
        "meta_classification_type": "U",
        "meta_norad_cat_id": 66455,
        "meta_element_set_no": 999,
        "meta_rev_at_epoch": 62,
        "meta_bstar": 0,
        "meta_mean_motion_dot": -7.8e-07,
        "meta_mean_motion_ddot": 0,
        "tle_line1": "1 66455U 25261B   25345.63652900 -.00000078  00000+0  00000+0 0  9996",
        "tle_line2": "2 66455   6.1471 291.7267 2329467 186.2623 318.1786  2.28259842   626"
      },
      "geometry": {
        "type": "Point",
        "coordinates": [
          163.35177229635383,
          -4.833361672275225
        ]
      }
    },
    {
      "type": "Feature",
      "properties": {
        "norad_id": 66456,
        "name": "STARLINK-35643",
        "group": "last-30-days",
        "lat": 4.349971653386503,
        "lon": -109.73029251596311,
        "alt_km": 443.89100353839603,
        "timestamp": "2025-12-12T03:50:51.175743+00:00",
        "meta_object_name": "STARLINK-35643",
        "meta_object_id": "2025-262A",
        "meta_epoch": "2025-12-11T14:00:01.999872",
        "meta_mean_motion": 15.40559128,
        "meta_eccentricity": 0.00014783,
        "meta_inclination": 43,
        "meta_ra_of_asc_node": 78.2771,
        "meta_arg_of_pericenter": 292.7962,
        "meta_mean_anomaly": 277.0235,
        "meta_ephemeris_type": 0,
        "meta_classification_type": "U",
        "meta_norad_cat_id": 66456,
        "meta_element_set_no": 999,
        "meta_rev_at_epoch": 545,
        "meta_bstar": 0.0020671847,
        "meta_mean_motion_dot": 0.00086628,
        "meta_mean_motion_ddot": 0,
        "tle_line1": "1 66456U 25262A   25345.58335648  .00086628  00000+0  20672-2 0  9993",
        "tle_line2": "2 66456  43.0000  78.2771 0001478 292.7962 277.0235 15.40559128  5455"
      },
      "geometry": {
        "type": "Point",
        "coordinates": [
          -109.73029251596311,
          4.349971653386503
        ]
      }
    },
    {
      "type": "Feature",
      "properties": {
        "norad_id": 66457,
        "name": "STARLINK-35466",
        "group": "last-30-days",
        "lat": -12.449756790528392,
        "lon": -91.40266492353732,
        "alt_km": 445.46425688053023,
        "timestamp": "2025-12-12T03:50:51.175756+00:00",
        "meta_object_name": "STARLINK-35466",
        "meta_object_id": "2025-262B",
        "meta_epoch": "2025-12-11T14:00:01.999872",
        "meta_mean_motion": 15.40781809,
        "meta_eccentricity": 0.00010785,
        "meta_inclination": 42.9997,
        "meta_ra_of_asc_node": 78.2176,
        "meta_arg_of_pericenter": 247.8631,
        "meta_mean_anomaly": 346.7267,
        "meta_ephemeris_type": 0,
        "meta_classification_type": "U",
        "meta_norad_cat_id": 66457,
        "meta_element_set_no": 999,
        "meta_rev_at_epoch": 545,
        "meta_bstar": -0.0061927042,
        "meta_mean_motion_dot": -0.00251328,
        "meta_mean_motion_ddot": 0,
        "tle_line1": "1 66457U 25262B   25345.58335648 -.00251328  00000+0 -61927-2 0  9995",
        "tle_line2": "2 66457  42.9997  78.2176 0001078 247.8631 346.7267 15.40781809  5450"
      },
      "geometry": {
        "type": "Point",
        "coordinates": [
          -91.40266492353732,
          -12.449756790528392
        ]
      }
    },
    {
      "type": "Feature",
      "properties": {
        "norad_id": 66458,
        "name": "STARLINK-35684",
        "group": "last-30-days",
        "lat": -4.088983437709405,
        "lon": -100.67862252628032,
        "alt_km": 444.77777989272454,
        "timestamp": "2025-12-12T03:50:51.175768+00:00",
        "meta_object_name": "STARLINK-35684",
        "meta_object_id": "2025-262C",
        "meta_epoch": "2025-12-11T14:00:01.999872",
        "meta_mean_motion": 15.40814049,
        "meta_eccentricity": 9.244e-05,
        "meta_inclination": 42.9998,
        "meta_ra_of_asc_node": 78.2468,
        "meta_arg_of_pericenter": 247.6399,
        "meta_mean_anomaly": 334.5094,
        "meta_ephemeris_type": 0,
        "meta_classification_type": "U",
        "meta_norad_cat_id": 66458,
        "meta_element_set_no": 999,
        "meta_rev_at_epoch": 545,
        "meta_bstar": -0.0073971895,
        "meta_mean_motion_dot": -0.00298636,
        "meta_mean_motion_ddot": 0,
        "tle_line1": "1 66458U 25262C   25345.58335648 -.00298636  00000+0 -73972-2 0  9992",
        "tle_line2": "2 66458  42.9998  78.2468 0000924 247.6399 334.5094 15.40814049  5450"
      },
      "geometry": {
        "type": "Point",
        "coordinates": [
          -100.67862252628032,
          -4.088983437709405
        ]
      }
    },
    {
      "type": "Feature",
      "properties": {
        "norad_id": 66459,
        "name": "STARLINK-35449",
        "group": "last-30-days",
        "lat": -20.50690734155095,
        "lon": -81.47564564357896,
        "alt_km": 446.0423285190391,
        "timestamp": "2025-12-12T03:50:51.175780+00:00",
        "meta_object_name": "STARLINK-35449",
        "meta_object_id": "2025-262D",
        "meta_epoch": "2025-12-11T14:00:01.999872",
        "meta_mean_motion": 15.40563139,
        "meta_eccentricity": 0.00015149,
        "meta_inclination": 43.0003,
        "meta_ra_of_asc_node": 78.1856,
        "meta_arg_of_pericenter": 290.496,
        "meta_mean_anomaly": 316.6405,
        "meta_ephemeris_type": 0,
        "meta_classification_type": "U",
        "meta_norad_cat_id": 66459,
        "meta_element_set_no": 999,
        "meta_rev_at_epoch": 545,
        "meta_bstar": 0.0019684807,
        "meta_mean_motion_dot": 0.00082442,
        "meta_mean_motion_ddot": 0,
        "tle_line1": "1 66459U 25262D   25345.58335648  .00082442  00000+0  19685-2 0  9998",
        "tle_line2": "2 66459  43.0003  78.1856 0001514 290.4960 316.6405 15.40563139  5454"
      },
      "geometry": {
        "type": "Point",
        "coordinates": [
          -81.47564564357896,
          -20.50690734155095
        ]
      }
    },
    {
      "type": "Feature",
      "properties": {
        "norad_id": 66460,
        "name": "STARLINK-35424",
        "group": "last-30-days",
        "lat": -27.907011307513137,
        "lon": -70.53431850231313,
        "alt_km": 446.04199674927713,
        "timestamp": "2025-12-12T03:50:51.175792+00:00",
        "meta_object_name": "STARLINK-35424",
        "meta_object_id": "2025-262E",
        "meta_epoch": "2025-12-11T14:00:01.999872",
        "meta_mean_motion": 15.40641564,
        "meta_eccentricity": 0.00012412,
        "meta_inclination": 43,
        "meta_ra_of_asc_node": 78.1551,
        "meta_arg_of_pericenter": 268.7887,
        "meta_mean_anomaly": 350.6552,
        "meta_ephemeris_type": 0,
        "meta_classification_type": "U",
        "meta_norad_cat_id": 66460,
        "meta_element_set_no": 999,
        "meta_rev_at_epoch": 545,
        "meta_bstar": 0.0013421463,
        "meta_mean_motion_dot": 0.00056065,
        "meta_mean_motion_ddot": 0,
        "tle_line1": "1 66460U 25262E   25345.58335648  .00056065  00000+0  13421-2 0  9994",
        "tle_line2": "2 66460  43.0000  78.1551 0001241 268.7887 350.6552 15.40641564  5458"
      },
      "geometry": {
        "type": "Point",
        "coordinates": [
          -70.53431850231313,
          -27.907011307513137
        ]
      }
    }
  ]
}